STARLINK-32133          
1 60333U 24136E   25202.36057430 -.00000447  00000+0 -29618-5 0  9997
2 60333  53.1614  70.4099 0001196  92.7236 267.3901 15.30193530 54245
STARLINK-32132          
1 60334U 24136F   25202.02767224 -.00000473  00000+0 -38338-5 0  9998
2 60334  53.1611  71.8883 0001236  90.5191 269.5951 15.30186805 54190
STARLINK-32168          
1 60335U 24136G   25202.35108006 -.00000242  00000+0  39608-5 0  9996
2 60335  53.1607  70.3491 0001307  92.2211 267.8939 15.30186822 54248
STARLINK-32079          
1 60336U 24136H   25201.95602174  .00000067  00000+0  14385-4 0  9995
2 60336  53.1596  72.1486 0001010 107.4329 252.6783 15.30186904 55397
STARLINK-32078          
1 60338U 24136K   25202.34368808  .00001502  00000+0  62871-4 0  9992
2 60338  53.1601  70.3007 0001971  94.9274 265.1952 15.30180654 54246
STARLINK-32175          
1 60339U 24136L   25202.34158103 -.00000687  00000+0 -11090-4 0  9990
2 60339  53.1595  70.2901 0001013  97.6773 262.4343 15.30189918 54248
STARLINK-32176          
1 60340U 24136M   25202.33841541 -.00000496  00000+0 -46452-5 0  9995
2 60340  53.1612  70.2719 0001036 102.4592 257.6524 15.30189483 55410
STARLINK-32185          
1 60341U 24136N   25202.33102621 -.00000362  00000+0 -98426-7 0  9997
2 60341  53.1608  70.2222 0000800  86.5964 273.5128 15.30193347 54249
STARLINK-32221          
1 60342U 24136P   25202.33419233 -.00000201  00000+0  53197-5 0  9993
2 60342  53.1610  70.2433 0001008  95.8622 264.2494 15.30193802 54241
STARLINK-32083          
1 60343U 24136Q   25202.33524222 -.00000077  00000+0  95140-5 0  9994
2 60343  53.1608  70.2164 0001107  96.8238 263.2889 15.30193095 54245
STARLINK-32077          
1 60344U 24136R   25202.32784525 -.00011332  00000+0 -37040-3 0  9998
2 60344  53.1599  70.1987 0000992  60.4782 299.6318 15.30256467 54242
STARLINK-32075          
1 60345U 24136S   25202.06239584 -.00003161  00000+0 -94682-4 0  9997
2 60345  53.1600  71.3885 0001037  94.5110 265.6009 15.30184111 54202
STARLINK-32082          
1 60346U 24136T   25202.32469315  .00000081  00000+0  14873-4 0  9994
2 60346  53.1609  70.1815 0001097  86.8751 273.2375 15.30196516 54240
STARLINK-32084          
1 60347U 24136U   25201.92964057 -.00000476  00000+0 -39535-5 0  9996
2 60347  53.1612  71.9805 0001153  76.0748 284.0380 15.30194686 54188
STARLINK-32081          
1 60348U 24136V   25202.05710282 -.00000750  00000+0 -13205-4 0  9991
2 60348  53.1568  71.3542 0001246  84.3224 275.7919 15.30196683 54202
STARLINK-32181          
1 60349U 24136W   25202.04760433  .00000819  00000+0  39757-4 0  9998
2 60349  53.1600  71.2933 0000916  73.1681 286.9420 15.30194913 54204
STARLINK-32076          
1 60350U 24136X   25202.05077191 -.00000138  00000+0  74644-5 0  9993
2 60350  53.1609  71.3128 0001249  78.1423 281.9718 15.30194798 54207
STARLINK-32097          
1 60351U 24136Y   25202.04443684  .00000200  00000+0  18872-4 0  9996
2 60351  53.1603  71.2734 0001291  84.3847 275.7301 15.30195285 54201
STARLINK-32285          
1 60355U 24138A   25202.54926380  .00000383  00000+0  25057-4 0  9991
2 60355  53.1594 302.9020 0001145  78.2338 281.8791 15.30193720 55249
STARLINK-32278          
1 60356U 24138B   25202.54621036 -.00001543  00000+0 -39985-4 0  9998
2 60356  53.1607 303.5825 0001230  86.9986 273.1155 15.30202047 55235
STARLINK-32287          
1 60358U 24138D   25202.54304698 -.00000631  00000+0 -91750-5 0  9998
2 60358  53.1618 303.5746 0001365  91.6073 268.5084 15.30192341 55234
STARLINK-32290          
1 60359U 24138E   25202.54515552  .00000163  00000+0  17611-4 0  9993
2 60359  53.1612 303.5885 0001099  89.3025 270.8102 15.30196523 36263
STARLINK-32275          
1 60360U 24138F   25202.58092405 -.00000318  00000+0  13853-5 0  9994
2 60360  53.1595 303.0953 0000970  89.1941 270.9171 15.30192815 55244
STARLINK-32227          
1 60361U 24138G   25202.60414223 -.00001961  00000+0 -54112-4 0  9992
2 60361  53.1605 303.2326 0000654  79.5634 280.5440 15.30197545 55256
STARLINK-32256          
1 60362U 24138H   25202.54409920  .00000807  00000+0  39372-4 0  9991
2 60362  53.1615 303.5691 0001314  93.4390 266.6761 15.30189419 55223
STARLINK-32267          
1 60363U 24138J   25202.59886679  .00000578  00000+0  31637-4 0  9998
2 60363  53.1610 303.2080 0001349  93.3186 266.7969 15.30188879 55240
STARLINK-32270          
1 60364U 24138K   25202.59042203 -.00000374  00000+0 -52149-6 0  9995
2 60364  53.1601 303.1549 0001019  95.5784 264.5333 15.30191819 55140
STARLINK-32188          
1 60365U 24138L   25202.51879874 -.00002786  00000+0 -82006-4 0  9992
2 60365  53.1631 303.4178 0001414 109.0758 251.0396 15.30180546 55231
STARLINK-32230          
1 60366U 24138M   25202.59676066  .00001723  00000+0  70301-4 0  9992
2 60366  53.1600 303.1955 0001269 103.7674 256.3468 15.30186076 55247
STARLINK-32243          
1 60367U 24138N   25202.58620025 -.00000192  00000+0  56359-5 0  9994
2 60367  53.1608 303.1251 0001060 100.1478 259.9642 15.30191289 55242
STARLINK-32271          
1 60368U 24138P   25202.60625103 -.00000250  00000+0  36929-5 0  9996
2 60368  53.1614 303.2543 0001197  99.1318 260.9818 15.30189494 55248
STARLINK-32266          
1 60369U 24138Q   25202.55828908  .00000185  00000+0  18364-4 0  9997
2 60369  53.1604 290.6627 0000989  79.4759 280.6353 15.30187532 55411
STARLINK-32220          
1 60370U 24138R   25202.59253204 -.00000377  00000+0 -59863-6 0  9990
2 60370  53.1611 303.1649 0001297  99.4264 260.6884 15.30192423 55244
STARLINK-32263          
1 60371U 24138S   25202.55243014  .00000296  00000+0  22128-4 0  9995
2 60371  53.1604 302.9187 0001203  77.0259 283.0876 15.30193815 55149
STARLINK-32268          
1 60372U 24138T   25202.54199187  .00000108  00000+0  15773-4 0  9996
2 60372  53.1617 303.5626 0001172  96.9439 263.1695 15.30190309 55237
STARLINK-32223          
1 60373U 24138U   25202.58726055 -.00000014  00000+0  11667-4 0  9996
2 60373  53.1605 303.1341 0001328  91.5210 268.5943 15.30186204 55140
STARLINK-32180          
1 60374U 24138V   25202.58936538  .00000063  00000+0  14263-4 0  9994
2 60374  53.1598 303.1451 0001047  99.4230 260.6889 15.30190300 55246
STARLINK-32281          
1 60375U 24138W   25202.56192800  .00000730  00000+0  36765-4 0  9991
2 60375  53.1611 302.9774 0001222  97.9137 262.2003 15.30192316 55146
STARLINK-32277          
1 60376U 24138X   25202.59569853 -.00000213  00000+0  49133-5 0  9992
2 60376  53.1602 303.1831 0001029 101.1721 258.9396 15.30188249 55244
STARLINK-32269          
1 60377U 24138Y   25202.57986730  .00000086  00000+0  15036-4 0  9999
2 60377  53.1600 303.0833 0001359  89.4080 270.7076 15.30193964 55243
STARLINK-11228 [DTC]    
1 60398U 24141A   25202.57607677  .00001224  00000+0  14961-4 0  9997
2 60398  53.1597 145.5890 0001112  85.7937 274.3208 15.69710107 55399
STARLINK-11182 [DTC]    
1 60399U 24141B   25202.11567695 -.00000701  00000+0 -92768-6 0  9997
2 60399  53.1596 147.6892 0001090  86.4859 273.6284 15.69708496 55372
STARLINK-11234 [DTC]    
1 60400U 24141C   25202.55645167 -.00004163  00000+0 -29499-4 0  9994
2 60400  53.1600 145.4575 0001266  96.0040 264.1122 15.69726429 55393
STARLINK-11232 [DTC]    
1 60401U 24141D   25202.55154910 -.00000328  00000+0  21533-5 0  9996
2 60401  53.1593 145.4274 0001196  86.2100 273.9055 15.69709360 55445
STARLINK-11139 [DTC]    
1 60402U 24141E   25202.54663433 -.00004638  00000+0 -33413-4 0  9999
2 60402  53.1585 145.3937 0000937  49.4962 310.6138 15.69734379 55440
STARLINK-11158 [DTC]    
1 60403U 24141F   25202.54184060  .00000407  00000+0  82162-5 0  9998
2 60403  53.1580 146.0964 0001113  70.8928 289.2211 15.69708713 55380
STARLINK-11199 [DTC]    
1 60404U 24141G   25202.15492256 -.00000656  00000+0 -55267-6 0  9990
2 60404  53.1590 147.9448 0001239  67.5924 292.5225 15.69703542 55373
STARLINK-11081 [DTC]    
1 60405U 24141H   25202.15001372 -.00000298  00000+0  23938-5 0  9996
2 60405  53.1589 147.9118 0001036  84.4892 275.6244 15.69706363 55325
STARLINK-11150 [DTC]    
1 60406U 24141J   25202.14510589 -.00000080  00000+0  41939-5 0  9991
2 60406  53.1592 147.8818 0001025 100.3056 259.8078 15.69711014 55377
STARLINK-11136 [DTC]    
1 60407U 24141K   25202.14020749 -.00001276  00000+0 -56798-5 0  9994
2 60407  53.1600 147.8472 0001126  97.8373 262.2772 15.69697605 55321
STARLINK-11196 [DTC]    
1 60408U 24141L   25202.26263021  .00000561  00000+0  94869-5 0  9995
2 60408  53.1585 147.1864 0001073  94.0425 266.0716 15.69716138 55390
STARLINK-11174 [DTC]    
1 60409U 24141M   25202.25282414 -.00000389  00000+0  16496-5 0  9991
2 60409  53.1592 147.1215 0001145  77.3463 282.7683 15.69706336 55347
STARLINK-11191 [DTC]    
1 60410U 24141N   25202.24792165 -.00000487  00000+0  84153-6 0  9996
2 60410  53.1592 147.0869 0001207  86.8324 273.2832 15.69703195 55399
STARLINK-32244          
1 60411U 24141P   25202.38367131 -.00000176  00000+0  61762-5 0  9998
2 60411  53.1580 237.1929 0000961  75.7052 284.4055 15.30197782 54168
STARLINK-32186          
1 60412U 24141Q   25202.51113586 -.00000170  00000+0  63893-5 0  9998
2 60412  53.1591 236.5668 0001123  77.1549 282.9577 15.30195388 54120
STARLINK-32178          
1 60413U 24141R   25202.50163640  .00000978  00000+0  45127-4 0  9998
2 60413  53.1594 236.5088 0001141  77.5691 282.5437 15.30197453 54128
STARLINK-32234          
1 60414U 24141S   25202.50796833  .00000924  00000+0  43312-4 0  9990
2 60414  53.1589 236.5478 0001092  80.1770 279.9354 15.30197632 54182
STARLINK-32265          
1 60415U 24141T   25202.37417394  .00000072  00000+0  14549-4 0  9992
2 60415  53.1587 237.1343 0001079  78.7747 281.3375 15.30195795 54167
STARLINK-32197          
1 60416U 24141U   25202.44590532 -.00000334  00000+0  84990-6 0  9998
2 60416  53.1588 226.9063 0001145  93.5800 266.5331 15.30193983 54257
